{
  "type": "FeatureCollection",
  "features": [
    {
      "type": "Feature",
      "properties": {
        "norad_id": 66359,
        "name": "STARLINK-35805",
        "group": "last-30-days",
        "lat": 52.99819121604844,
        "lon": 33.883533187686794,
        "alt_km": 400.7144666386348,
        "timestamp": "2025-12-05T19:30:24.348846+00:00",
        "meta_object_name": "STARLINK-35805",
        "meta_object_id": "2025-254M",
        "meta_epoch": "2025-12-05T06:00:02.000160",
        "meta_mean_motion": 15.55250066,
        "meta_eccentricity": 0.00014679,
        "meta_inclination": 53.1594,
        "meta_ra_of_asc_node": 312.3991,
        "meta_arg_of_pericenter": 90.2792,
        "meta_mean_anomaly": 86.2092,
        "meta_ephemeris_type": 0,
        "meta_classification_type": "U",
        "meta_norad_cat_id": 66359,
        "meta_element_set_no": 999,
        "meta_rev_at_epoch": 569,
        "meta_bstar": -0.034154239,
        "meta_mean_motion_dot": -0.02094157,
        "meta_mean_motion_ddot": 0,
        "tle_line1": "1 66359U 25254M   25339.25002315 -.02094157  00000+0 -34154-1 0  9994",
        "tle_line2": "2 66359  53.1594 312.3991 0001467  90.2792  86.2092 15.55250066  5695"
      },
      "geometry": {
        "type": "Point",
        "coordinates": [
          33.883533187686794,
          52.99819121604844
        ]
      }
    },
    {
      "type": "Feature",
      "properties": {
        "norad_id": 66360,
        "name": "STARLINK-35823",
        "group": "last-30-days",
        "lat": 53.13824498064917,
        "lon": 40.26657777404908,
        "alt_km": 400.72158325713735,
        "timestamp": "2025-12-05T19:30:24.348856+00:00",
        "meta_object_name": "STARLINK-35823",
        "meta_object_id": "2025-254N",
        "meta_epoch": "2025-12-05T06:00:02.000160",
        "meta_mean_motion": 15.55248338,
        "meta_eccentricity": 0.00014214,
        "meta_inclination": 53.1594,
        "meta_ra_of_asc_node": 312.3904,
        "meta_arg_of_pericenter": 90.9695,
        "meta_mean_anomaly": 89.3546,
        "meta_ephemeris_type": 0,
        "meta_classification_type": "U",
        "meta_norad_cat_id": 66360,
        "meta_element_set_no": 999,
        "meta_rev_at_epoch": 571,
        "meta_bstar": -0.034124423,
        "meta_mean_motion_dot": -0.02092379,
        "meta_mean_motion_ddot": 0,
        "tle_line1": "1 66360U 25254N   25339.25002315 -.02092379  00000+0 -34124-1 0  9997",
        "tle_line2": "2 66360  53.1594 312.3904 0001421  90.9695  89.3546 15.55248338  5710"
      },
      "geometry": {
        "type": "Point",
        "coordinates": [
          40.26657777404908,
          53.13824498064917
        ]
      }
    },
    {
      "type": "Feature",
      "properties": {
        "norad_id": 66361,
        "name": "STARLINK-35813",
        "group": "last-30-days",
        "lat": 53.110983530757025,
        "lon": 37.0677188960036,
        "alt_km": 400.5938839398086,
        "timestamp": "2025-12-05T19:30:24.348867+00:00",
        "meta_object_name": "STARLINK-35813",
        "meta_object_id": "2025-254P",
        "meta_epoch": "2025-12-05T06:00:02.000160",
        "meta_mean_motion": 15.55248422,
        "meta_eccentricity": 0.0001622,
        "meta_inclination": 53.1594,
        "meta_ra_of_asc_node": 312.3952,
        "meta_arg_of_pericenter": 87.2373,
        "meta_mean_anomaly": 91.171,
        "meta_ephemeris_type": 0,
        "meta_classification_type": "U",
        "meta_norad_cat_id": 66361,
        "meta_element_set_no": 999,
        "meta_rev_at_epoch": 571,
        "meta_bstar": -0.034178137,
        "meta_mean_motion_dot": -0.02095451,
        "meta_mean_motion_ddot": 0,
        "tle_line1": "1 66361U 25254P   25339.25002315 -.02095451  00000+0 -34178-1 0  9991",
        "tle_line2": "2 66361  53.1594 312.3952 0001622  87.2373  91.1710 15.55248422  5717"
      },
      "geometry": {
        "type": "Point",
        "coordinates": [
          37.0677188960036,
          53.110983530757025
        ]
      }
    },
    {
      "type": "Feature",
      "properties": {
        "norad_id": 66362,
        "name": "STARLINK-35822",
        "group": "last-30-days",
        "lat": 52.93572688655,
        "lon": 46.63824926549412,
        "alt_km": 400.7072615007155,
        "timestamp": "2025-12-05T19:30:24.348879+00:00",
        "meta_object_name": "STARLINK-35822",
        "meta_object_id": "2025-254Q",
        "meta_epoch": "2025-12-05T06:00:02.000160",
        "meta_mean_motion": 15.55249802,
        "meta_eccentricity": 0.00015145,
        "meta_inclination": 53.1594,
        "meta_ra_of_asc_node": 312.3825,
        "meta_arg_of_pericenter": 84.6096,
        "meta_mean_anomaly": 99.551,
        "meta_ephemeris_type": 0,
        "meta_classification_type": "U",
        "meta_norad_cat_id": 66362,
        "meta_element_set_no": 999,
        "meta_rev_at_epoch": 571,
        "meta_bstar": -0.034236067,
        "meta_mean_motion_dot": -0.02098634,
        "meta_mean_motion_ddot": 0,
        "tle_line1": "1 66362U 25254Q   25339.25002315 -.02098634  00000+0 -34236-1 0  9993",
        "tle_line2": "2 66362  53.1594 312.3825 0001514  84.6096  99.5510 15.55249802  5713"
      },
      "geometry": {
        "type": "Point",
        "coordinates": [
          46.63824926549412,
          52.93572688655
        ]
      }
    },
    {
      "type": "Feature",
      "properties": {
        "norad_id": 66363,
        "name": "STARLINK-35806",
        "group": "last-30-days",
        "lat": 53.07965816480425,
        "lon": 43.459981320323934,
        "alt_km": 400.70957922574416,
        "timestamp": "2025-12-05T19:30:24.348889+00:00",
        "meta_object_name": "STARLINK-35806",
        "meta_object_id": "2025-254R",
        "meta_epoch": "2025-12-05T06:00:02.000160",
        "meta_mean_motion": 15.55248143,
        "meta_eccentricity": 0.00014829,
        "meta_inclination": 53.1594,
        "meta_ra_of_asc_node": 312.3865,
        "meta_arg_of_pericenter": 82.8858,
        "meta_mean_anomaly": 99.3599,
        "meta_ephemeris_type": 0,
        "meta_classification_type": "U",
        "meta_norad_cat_id": 66363,
        "meta_element_set_no": 999,
        "meta_rev_at_epoch": 569,
        "meta_bstar": -0.034217425,
        "meta_mean_motion_dot": -0.02097481,
        "meta_mean_motion_ddot": 0,
        "tle_line1": "1 66363U 25254R   25339.25002315 -.02097481  00000+0 -34217-1 0  9992",
        "tle_line2": "2 66363  53.1594 312.3865 0001482  82.8858  99.3599 15.55248143  5697"
      },
      "geometry": {
        "type": "Point",
        "coordinates": [
          43.459981320323934,
          53.07965816480425
        ]
      }
    },
    {
      "type": "Feature",
      "properties": {
        "norad_id": 66364,
        "name": "STARLINK-35797",
        "group": "last-30-days",
        "lat": 52.70723548422049,
        "lon": 49.79166174975177,
        "alt_km": 400.6661458473336,
        "timestamp": "2025-12-05T19:30:24.348899+00:00",
        "meta_object_name": "STARLINK-35797",
        "meta_object_id": "2025-254S",
        "meta_epoch": "2025-12-05T06:00:02.000160",
        "meta_mean_motion": 15.55248026,
        "meta_eccentricity": 0.00016038,
        "meta_inclination": 53.1594,
        "meta_ra_of_asc_node": 312.3783,
        "meta_arg_of_pericenter": 84.9891,
        "meta_mean_anomaly": 101.0862,
        "meta_ephemeris_type": 0,
        "meta_classification_type": "U",
        "meta_norad_cat_id": 66364,
        "meta_element_set_no": 999,
        "meta_rev_at_epoch": 571,
        "meta_bstar": -0.034146903,
        "meta_mean_motion_dot": -0.02093706,
        "meta_mean_motion_ddot": 0,
        "tle_line1": "1 66364U 25254S   25339.25002315 -.02093706  00000+0 -34147-1 0  9991",
        "tle_line2": "2 66364  53.1594 312.3783 0001603  84.9891 101.0862 15.55248026  5719"
      },
      "geometry": {
        "type": "Point",
        "coordinates": [
          49.79166174975177,
          52.70723548422049
        ]
      }
    },
    {
      "type": "Feature",
      "properties": {
        "norad_id": 66365,
        "name": "STARLINK-35827",
        "group": "last-30-days",
        "lat": 52.004237420764,
        "lon": 55.96960852856393,
        "alt_km": 400.86052949019177,
        "timestamp": "2025-12-05T19:30:24.348909+00:00",
        "meta_object_name": "STARLINK-35827",
        "meta_object_id": "2025-254T",
        "meta_epoch": "2025-12-05T06:00:02.000160",
        "meta_mean_motion": 15.55247669,
        "meta_eccentricity": 0.00014843,
        "meta_inclination": 53.1596,
        "meta_ra_of_asc_node": 312.3709,
        "meta_arg_of_pericenter": 85.4917,
        "meta_mean_anomaly": 104.4203,
        "meta_ephemeris_type": 0,
        "meta_classification_type": "U",
        "meta_norad_cat_id": 66365,
        "meta_element_set_no": 999,
        "meta_rev_at_epoch": 569,
        "meta_bstar": -0.034170011,
        "meta_mean_motion_dot": -0.02094862,
        "meta_mean_motion_ddot": 0,
        "tle_line1": "1 66365U 25254T   25339.25002315 -.02094862  00000+0 -34170-1 0  9992",
        "tle_line2": "2 66365  53.1596 312.3709 0001484  85.4917 104.4203 15.55247669  5697"
      },
      "geometry": {
        "type": "Point",
        "coordinates": [
          55.96960852856393,
          52.004237420764
        ]
      }
    }
  ]
}